[{"OBJECT_NAME":"STARLINK-3239","OBJECT_ID":"2021-115V","EPOCH":"2026-03-09T13:08:05.010144","MEAN_MOTION":15.08836358,"ECCENTRICITY":0.00012481,"INCLINATION":53.2175,"RA_OF_ASC_NODE":149.6935,"ARG_OF_PERICENTER":81.7072,"MEAN_ANOMALY":278.4062,"EPHEMERIS_TYPE":0,"CLASSIFICATION_TYPE":"U","NORAD_CAT_ID":49743,"ELEMENT_SET_NO":999,"REV_AT_EPOCH":23551,"BSTAR":-3.140838e-6,"MEAN_MOTION_DOT":-3.38e-6,"MEAN_MOTION_DDOT":0},{"OBJECT_NAME":"CICERO 3","OBJECT_ID":"2017-042AA","EPOCH":"2026-03-09T22:34:09.559488","MEAN_MOTION":15.06999011,"ECCENTRICITY":0.00123402,"INCLINATION":97.4153,"RA_OF_ASC_NODE":238.2133,"ARG_OF_PERICENTER":85.148,"MEAN_ANOMALY":275.1157,"EPHEMERIS_TYPE":0,"CLASSIFICATION_TYPE":"U","NORAD_CAT_ID":42849,"ELEMENT_SET_NO":999,"REV_AT_EPOCH":47226,"BSTAR":0.00039473976,"MEAN_MOTION_DOT":5.861e-5,"MEAN_MOTION_DDOT":0}]
